[
{
    "model": "hiredapp.customer",
    "pk": 1,
    "fields": {
        "user": 1,
        "address": "124 Main Street",
        "phone_number": "615-555-2341",
        "zipcode": "37206",
        "city": "Nashville",
        "profile_picture": "jj.jpg"
    }
},
{
    "model": "hiredapp.customer",
    "pk": 2,
    "fields": {
        "user": 2,
        "address": "456 Broadway",
        "phone_number": "234-553-3983",
        "zipcode": "37027",
        "city": "Tulsa",
        "profile_picture": ""
    }
},
{
    "model": "hiredapp.customer",
    "pk": 3,
    "fields": {
        "user": 3,
        "address": "789 Union Ave.",
        "phone_number": "222-232-2122",
        "zipcode": "47602",
        "city": "Nashville",
        "profile_picture": "hv.jpg"
    }
},
{
    "model": "hiredapp.customer",
    "pk": 4,
    "fields": {
        "user": 4,
        "address": "123 Kitty Baby Blvd",
        "phone_number": "615-Babu-Cat",
        "zipcode": "56471",
        "city": "Nashville",
        "profile_picture": ""
    }
},
{
    "model": "hiredapp.customer",
    "pk": 5,
    "fields": {
        "user": 6,
        "address": "111 One road",
        "phone_number": "1111112341",
        "zipcode": "12345",
        "city": "Nashville",
        "profile_picture": "zz.jpeg"
    }
},
{
    "model": "hiredapp.customer",
    "pk": 9,
    "fields": {
        "user": 12,
        "address": "212 Ghost Wood Drive",
        "phone_number": "5555555555",
        "zipcode": "37206",
        "city": "Nashville",
        "profile_picture": "tt.jpg"
    }
},
{
    "model": "hiredapp.customer",
    "pk": 11,
    "fields": {
        "user": 13,
        "address": "57 Road Street",
        "phone_number": "1231231234",
        "zipcode": "988987",
        "city": "",
        "profile_picture": ""
    }
},
{
    "model": "hiredapp.customer",
    "pk": 12,
    "fields": {
        "user": 14,
        "address": "123 Main Street",
        "phone_number": "5555555555",
        "zipcode": "37206",
        "city": "",
        "profile_picture": ""
    }
},
{
    "model": "hiredapp.customer",
    "pk": 30,
    "fields": {
        "user": 32,
        "address": "123 Main Street",
        "phone_number": "1231231234",
        "zipcode": "37206",
        "city": "Nashville ",
        "profile_picture": ""
    }
},
{
    "model": "hiredapp.customer",
    "pk": 31,
    "fields": {
        "user": 33,
        "address": "123 Main Street",
        "phone_number": "1231231234",
        "zipcode": "37206",
        "city": "Nashville",
        "profile_picture": "sally.jpg"
    }
},
{
    "model": "hiredapp.customer",
    "pk": 32,
    "fields": {
        "user": 34,
        "address": "123 Main Street",
        "phone_number": "5555555555",
        "zipcode": "37206",
        "city": "Nashville",
        "profile_picture": "IMG_4025.JPG"
    }
}
]
